              TDR Cartesian                         TDR Cartesian  
    -----------------------------------       --------------------------------
     X    =       -4134749.04                 X    =        -1260271.51
     Y    =       14385825.39  feet           Y    =         4384799.58  meter
     Z    =       16435692.78                 Z    =         5009599.16
     XDOT =     -23245.854906                 XDOT =       -7085.336575
     YDOT =        829.697208  feet/sec       YDOT =         252.891709  meter/sec
     ZDOT =      -6552.354051                 ZDOT =       -1997.157515
  
  
    The mean element set is posted at the UTC for which position is
    just north of the next ascending node relative to the above
    vector time
 
 
    TWO LINE MEAN ELEMENT SET
  
    ISS
    1 25544U 98067A   16105.56161377  .00016717  00000-0  10270-3 0  9040
    2 25544  51.6436  15.3855 0001721  27.7543 332.3701 15.54248190 35087
  
  
    Satellite: ISS
    Catalog Number: 25544
    Epoch time:      16105.56161377   =   yrday.fracday
    Element set:     904
    Inclination:       51.6436  deg
    RA of node:        15.3855  deg
    Eccentricity:     .0001721     
    Arg of perigee:    27.7543  deg
    Mean anomaly:     332.3701  deg
    Mean motion:   15.54248190  rev/day
    Decay rate:    1.67170E-04  rev/day^2
    Epoch rev:            3508
    Checksum:              291
 
 
    Coasting Arc #6 (Orbit 3522)
    ---------------------------------------
 
    Vector Time (GMT): 2016/106/12:24:13.979
    Vector Time (MET): N/A
    Weight (LBS)     : 945061.1
 
              M50 Cartesian                         M50 Keplerian  
    -----------------------------------       --------------------------------
     X    =        4672506.01                 A    =         6781608.02  meter
     Y    =       -2548975.99  meter          E    =           .0008335
     Z    =       -4210326.15                 I    =           51.70803
     XDOT =       5454.185458                 Wp   =           97.51111
     YDOT =       3919.768590  meter/sec      RA   =           10.03491  deg
     ZDOT =       3685.028855                 TA   =          210.26093
                                              MA   =          210.30909
                                              Ha   =            221.249  n.mi
                                              Hp   =            214.244
 
              M50 Cartesian                         J2K Cartesian  
    -----------------------------------       --------------------------------
     X    =       15329744.11                 X    =         4721114.00
     Y    =       -8362782.13  feet           Y    =        -2496453.45  meter
     Z    =      -13813405.99                 Z    =        -4187510.00
     XDOT =      17894.309246                 XDOT =        5392.047954
     YDOT =      12860.133169  feet/sec       YDOT =        3980.413760  meter/sec
     ZDOT =      12089.989682                 ZDOT =        3711.372743
 
              TDR Cartesian                         TDR Cartesian  
    -----------------------------------       --------------------------------
     X    =        9352019.80                 X    =         2850495.64
     Y    =      -14839807.62  feet           Y    =        -4523173.36  meter
     Z    =      -13713759.51                 Z    =        -4179953.90
     XDOT =      20748.962258                 XDOT =        6324.283696
     YDOT =       1814.150243  feet/sec       YDOT =         552.952994  meter/sec
     ZDOT =      12203.678437                 ZDOT =        3719.681188
  
  
    The mean element set is posted at the UTC for which position is
    just north of the next ascending node relative to the above
    vector time
 
 
    TWO LINE MEAN ELEMENT SET
  
    ISS
    1 25544U 98067A   16106.52608413  .00016717  00000-0  10270-3 0  9055
    2 25544  51.6443  10.5764 0001724  31.6829 328.4427 15.54238703 35232
  
  
    Satellite: ISS
    Catalog Number: 25544
    Epoch time:      16106.52608413   =   yrday.fracday
    Element set:     905
    Inclination:       51.6443  deg
    RA of node:        10.5764  deg
    Eccentricity:     .0001724     
    Arg of perigee:    31.6829  deg
    Mean anomaly:     328.4427  deg
    Mean motion:   15.54238703  rev/day
    Decay rate:    1.67170E-04  rev/day^2
    Epoch rev:            3523
    Checksum:              291
 
 
    Coasting Arc #7 (Orbit 3538)
    ---------------------------------------
 
    Vector Time (GMT): 2016/107/12:24:13.979
    Vector Time (MET): N/A
    Weight (LBS)     : 945061.1
 
              M50 Cartesian                         M50 Keplerian  
    -----------------------------------       --------------------------------
     X    =       -5862306.52                 A    =         6785528.21  meter
     Y    =        1783110.51  meter          E    =           .0014245
     Z    =        2901863.78                 I    =           51.68928
     XDOT =      -3824.464688                 Wp   =           92.54751
     YDOT =      -4336.336827  meter/sec      RA   =            5.05420  deg
     ZDOT =      -5040.841132                 TA   =           54.39556
                                              MA   =           54.26293
                                              Ha   =            221.328  n.mi
                                              Hp   =            214.126
 
              M50 Cartesian                         J2K Cartesian  
    -----------------------------------       --------------------------------
     X    =      -19233289.12                 X    =        -5895906.05
     Y    =        5850100.09  feet           Y    =         1717366.68  meter
     Z    =        9520550.47                 Z    =         2873304.35
     XDOT =     -12547.456327                 XDOT =       -3751.204159
     YDOT =     -14226.826860  feet/sec       YDOT =       -4378.695346  meter/sec
     ZDOT =     -16538.192691                 ZDOT =       -5059.241147
 
              TDR Cartesian                         TDR Cartesian  
    -----------------------------------       --------------------------------
     X    =      -13709635.10                 X    =        -4178696.78
     Y    =       14783200.36  feet           Y    =         4505919.47  meter
     Z    =        9396108.52                 Z    =         2863933.88
     XDOT =     -16840.647789                 XDOT =       -5133.029446
     YDOT =      -5012.013900  feet/sec       YDOT =       -1527.661837  meter/sec
     ZDOT =     -16617.276618                 ZDOT =       -5064.945913
  
  
    The mean element set is posted at the UTC for which position is
    just north of the next ascending node relative to the above
    vector time
 
 
    TWO LINE MEAN ELEMENT SET
  
    ISS
    1 25544U 98067A   16107.55484069  .00016717  00000-0  10270-3 0  9069
    2 25544  51.6442   5.4470 0001722  38.2105 321.9169 15.54240115 35394
  
  
    Satellite: ISS
    Catalog Number: 25544
    Epoch time:      16107.55484069   =   yrday.fracday
    Element set:     906
    Inclination:       51.6442  deg
    RA of node:         5.4470  deg
    Eccentricity:     .0001722     
    Arg of perigee:    38.2105  deg
    Mean anomaly:     321.9169  deg
    Mean motion:   15.54240115  rev/day
    Decay rate:    1.67170E-04  rev/day^2
    Epoch rev:            3539
    Checksum:              287
 
 
    Coasting Arc #8 (Orbit 3553)
    ---------------------------------------
 
    Vector Time (GMT): 2016/108/12:24:13.979
    Vector Time (MET): N/A
    Weight (LBS)     : 945061.1
 
              M50 Cartesian                         M50 Keplerian  
    -----------------------------------       --------------------------------
     X    =        6577391.57                 A    =         6788189.14  meter
     Y    =       -1023904.96  meter          E    =           .0010675
     Z    =       -1306660.45                 I    =           51.66733
     XDOT =       1870.258296                 Wp   =           36.98514
     YDOT =       4613.892918  meter/sec      RA   =             .08053  deg
     ZDOT =       5832.027707                 TA   =          308.80020
                                              MA   =          308.89548
                                              Ha   =            221.207  n.mi
                                              Hp   =            214.060
 
              M50 Cartesian                         J2K Cartesian  
    -----------------------------------       --------------------------------
     X    =       21579368.68                 X    =         6594699.51
     Y    =       -3359268.23  feet           Y    =         -950255.54  meter
     Z    =       -4286943.72                 Z    =        -1274666.86
     XDOT =       6136.018030                 XDOT =        1790.195994
     YDOT =      15137.443956  feet/sec       YDOT =        4634.360293  meter/sec
     ZDOT =      19133.949169                 ZDOT =        5840.918087
 
              TDR Cartesian                         TDR Cartesian  
    -----------------------------------       --------------------------------
     X    =       16722989.39                 X    =         5097167.17
     Y    =      -14087923.40  feet           Y    =        -4293999.05  meter
     Z    =       -4147741.84                 Z    =        -1264231.71
     XDOT =      11970.937750                 XDOT =        3648.741826
     YDOT =       8598.590301  feet/sec       YDOT =        2620.850324  meter/sec
     ZDOT =      19171.657488                 ZDOT =        5843.521202
  
  
    The mean element set is posted at the UTC for which position is
    just north of the next ascending node relative to the above
    vector time
 
 
    TWO LINE MEAN ELEMENT SET
  
    ISS
    1 25544U 98067A   16108.51928701  .00016717  00000-0  10270-3 0  9073
    2 25544  51.6448    .6378 0001684  35.5800 324.5465 15.54286296 35548
  
